{
  "type": "FeatureCollection",
  "features": [
    {
      "type": "Feature",
      "properties": {
        "norad_id": 31952,
        "name": "FENGYUN 1C DEB",
        "group": "fengyun-1c-debris",
        "lat": 15.63919786422517,
        "lon": -58.88474830883207,
        "alt_km": 708.806272015514,
        "timestamp": "2025-12-26T12:57:39.557856+00:00",
        "meta_object_name": "FENGYUN 1C DEB",
        "meta_object_id": "1999-025CND",
        "meta_epoch": "2025-12-26T07:14:26.868768",
        "meta_mean_motion": 14.53556911,
        "meta_eccentricity": 0.01140248,
        "meta_inclination": 98.9557,
        "meta_ra_of_asc_node": 118.3304,
        "meta_arg_of_pericenter": 251.2,
        "meta_mean_anomaly": 107.6798,
        "meta_ephemeris_type": 0,
        "meta_classification_type": "U",
        "meta_norad_cat_id": 31952,
        "meta_element_set_no": 999,
        "meta_rev_at_epoch": 97406,
        "meta_bstar": 0.00062295289,
        "meta_mean_motion_dot": 2.777e-05,
        "meta_mean_motion_ddot": 0,
        "tle_line1": "1 31952U 99025CND 25360.30169987  .00002777  00000+0  62295-3 0  9993",
        "tle_line2": "2 31952  98.9557 118.3304 0114024 251.2000 107.6798 14.53556911974061"
      },
      "geometry": {
        "type": "Point",
        "coordinates": [
          -58.88474830883207,
          15.63919786422517
        ]
      }
    },
    {
      "type": "Feature",
      "properties": {
        "norad_id": 31955,
        "name": "FENGYUN 1C DEB",
        "group": "fengyun-1c-debris",
        "lat": 6.342387153062651,
        "lon": -121.95849988989588,
        "alt_km": 702.5560357653649,
        "timestamp": "2025-12-26T12:57:39.557866+00:00",
        "meta_object_name": "FENGYUN 1C DEB",
        "meta_object_id": "1999-025CNG",
        "meta_epoch": "2025-12-21T21:41:07.179648",
        "meta_mean_motion": 14.64028697,
        "meta_eccentricity": 0.00435771,
        "meta_inclination": 99.2807,
        "meta_ra_of_asc_node": 233.8648,
        "meta_arg_of_pericenter": 152.6411,
        "meta_mean_anomaly": 271.1392,
        "meta_ephemeris_type": 0,
        "meta_classification_type": "U",
        "meta_norad_cat_id": 31955,
        "meta_element_set_no": 999,
        "meta_rev_at_epoch": 96691,
        "meta_bstar": 0.0014947189,
        "meta_mean_motion_dot": 7.894e-05,
        "meta_mean_motion_ddot": 0,
        "tle_line1": "1 31955U 99025CNG 25355.90355532  .00007894  00000+0  14947-2 0  9994",
        "tle_line2": "2 31955  99.2807 233.8648 0043577 152.6411 271.1392 14.64028697966913"
      },
      "geometry": {
        "type": "Point",
        "coordinates": [
          -121.95849988989588,
          6.342387153062651
        ]
      }
    },
    {
      "type": "Feature",
      "properties": {
        "norad_id": 31959,
        "name": "FENGYUN 1C DEB",
        "group": "fengyun-1c-debris",
        "lat": -73.42677755565977,
        "lon": -98.18096279937237,
        "alt_km": 762.0793706524837,
        "timestamp": "2025-12-26T12:57:39.557878+00:00",
        "meta_object_name": "FENGYUN 1C DEB",
        "meta_object_id": "1999-025CNL",
        "meta_epoch": "2025-12-21T22:06:57.352032",
        "meta_mean_motion": 14.46896532,
        "meta_eccentricity": 0.00273534,
        "meta_inclination": 98.5099,
        "meta_ra_of_asc_node": 226.9733,
        "meta_arg_of_pericenter": 126.577,
        "meta_mean_anomaly": 233.7945,
        "meta_ephemeris_type": 0,
        "meta_classification_type": "U",
        "meta_norad_cat_id": 31959,
        "meta_element_set_no": 999,
        "meta_rev_at_epoch": 64486,
        "meta_bstar": 0.0023827795,
        "meta_mean_motion_dot": 8.652e-05,
        "meta_mean_motion_ddot": 0,
        "tle_line1": "1 31959U 99025CNL 25355.92149713  .00008652  00000+0  23828-2 0  9993",
        "tle_line2": "2 31959  98.5099 226.9733 0027353 126.5770 233.7945 14.46896532644868"
      },
      "geometry": {
        "type": "Point",
        "coordinates": [
          -98.18096279937237,
          -73.42677755565977
        ]
      }
    },
    {
      "type": "Feature",
      "properties": {
        "norad_id": 31964,
        "name": "FENGYUN 1C DEB",
        "group": "fengyun-1c-debris",
        "lat": -69.09377815326964,
        "lon": 148.4524634927687,
        "alt_km": 693.5725347143398,
        "timestamp": "2025-12-26T12:57:39.557888+00:00",
        "meta_object_name": "FENGYUN 1C DEB",
        "meta_object_id": "1999-025CNR",
        "meta_epoch": "2025-12-23T02:58:25.746240",
        "meta_mean_motion": 14.58706281,
        "meta_eccentricity": 0.00284078,
        "meta_inclination": 98.7007,
        "meta_ra_of_asc_node": 121.2429,
        "meta_arg_of_pericenter": 357.3424,
        "meta_mean_anomaly": 2.7619,
        "meta_ephemeris_type": 0,
        "meta_classification_type": "U",
        "meta_norad_cat_id": 31964,
        "meta_element_set_no": 999,
        "meta_rev_at_epoch": 67661,
        "meta_bstar": 0.0025118016,
        "meta_mean_motion_dot": 0.0001175,
        "meta_mean_motion_ddot": 0,
        "tle_line1": "1 31964U 99025CNR 25357.12390910  .00011750  00000+0  25118-2 0  9997",
        "tle_line2": "2 31964  98.7007 121.2429 0028407 357.3424   2.7619 14.58706281676619"
      },
      "geometry": {
        "type": "Point",
        "coordinates": [
          148.4524634927687,
          -69.09377815326964
        ]
      }
    },
    {
      "type": "Feature",
      "properties": {
        "norad_id": 31966,
        "name": "FENGYUN 1C DEB",
        "group": "fengyun-1c-debris",
        "lat": -4.87532065316388,
        "lon": 155.29825771249767,
        "alt_km": 704.5411926725174,
        "timestamp": "2025-12-26T12:57:39.557900+00:00",
        "meta_object_name": "FENGYUN 1C DEB",
        "meta_object_id": "1999-025CNT",
        "meta_epoch": "2025-12-24T05:21:16.195104",
        "meta_mean_motion": 14.67701471,
        "meta_eccentricity": 0.00860415,
        "meta_inclination": 99.0179,
        "meta_ra_of_asc_node": 151.9727,
        "meta_arg_of_pericenter": 239.292,
        "meta_mean_anomaly": 119.9784,
        "meta_ephemeris_type": 0,
        "meta_classification_type": "U",
        "meta_norad_cat_id": 31966,
        "meta_element_set_no": 999,
        "meta_rev_at_epoch": 65911,
        "meta_bstar": 0.0014485658,
        "meta_mean_motion_dot": 8.665e-05,
        "meta_mean_motion_ddot": 0,
        "tle_line1": "1 31966U 99025CNT 25358.22310411  .00008665  00000+0  14486-2 0  9996",
        "tle_line2": "2 31966  99.0179 151.9727 0086041 239.2920 119.9784 14.67701471659119"
      },
      "geometry": {
        "type": "Point",
        "coordinates": [
          155.29825771249767,
          -4.87532065316388
        ]
      }
    },
    {
      "type": "Feature",
      "properties": {
        "norad_id": 31972,
        "name": "FENGYUN 1C DEB",
        "group": "fengyun-1c-debris",
        "lat": -66.53866077544423,
        "lon": 64.40557758402456,
        "alt_km": 848.5788357216325,
        "timestamp": "2025-12-26T12:57:39.557911+00:00",
        "meta_object_name": "FENGYUN 1C DEB",
        "meta_object_id": "1999-025CNZ",
        "meta_epoch": "2025-12-24T01:42:34.636608",
        "meta_mean_motion": 14.07519501,
        "meta_eccentricity": 0.00764333,
        "meta_inclination": 99.21,
        "meta_ra_of_asc_node": 39.9378,
        "meta_arg_of_pericenter": 0.4023,
        "meta_mean_anomaly": 29.3212,
        "meta_ephemeris_type": 0,
        "meta_classification_type": "U",
        "meta_norad_cat_id": 31972,
        "meta_element_set_no": 999,
        "meta_rev_at_epoch": 95120,
        "meta_bstar": 0.00020159041,
        "meta_mean_motion_dot": 3.02e-06,
        "meta_mean_motion_ddot": 0,
        "tle_line1": "1 31972U 99025CNZ 25358.07123422  .00000302  00000+0  20159-3 0  9995",
        "tle_line2": "2 31972  99.2100  39.9378 0076433   0.4023  29.3212 14.07519501951205"
      },
      "geometry": {
        "type": "Point",
        "coordinates": [
          64.40557758402456,
          -66.53866077544423
        ]
      }
    },
    {
      "type": "Feature",
      "properties": {
        "norad_id": 31974,
        "name": "FENGYUN 1C DEB",
        "group": "fengyun-1c-debris",
        "lat": 56.6090740117632,
        "lon": -1.7774248920048887,
        "alt_km": 833.9917141112264,
        "timestamp": "2025-12-26T12:57:39.557921+00:00",
        "meta_object_name": "FENGYUN 1C DEB",
        "meta_object_id": "1999-025CPB",
        "meta_epoch": "2025-12-24T23:44:15.961632",
        "meta_mean_motion": 14.29664564,
        "meta_eccentricity": 0.0071341,
        "meta_inclination": 98.3795,
        "meta_ra_of_asc_node": 9.6517,
        "meta_arg_of_pericenter": 266.2671,
        "meta_mean_anomaly": 93.0352,
        "meta_ephemeris_type": 0,
        "meta_classification_type": "U",
        "meta_norad_cat_id": 31974,
        "meta_element_set_no": 999,
        "meta_rev_at_epoch": 69597,
        "meta_bstar": 0.0024190503,
        "meta_mean_motion_dot": 6.335e-05,
        "meta_mean_motion_ddot": 0,
        "tle_line1": "1 31974U 99025CPB 25358.98907363  .00006335  00000+0  24191-2 0  9992",
        "tle_line2": "2 31974  98.3795   9.6517 0071341 266.2671  93.0352 14.29664564695976"
      },
      "geometry": {
        "type": "Point",
        "coordinates": [
          -1.7774248920048887,
          56.6090740117632
        ]
      }
    }
  ]
}